{"type":"FeatureCollection","features":[{"type":"Feature","properties":{"code":"HI"},"geometry":{"type":"MultiPolygon","coordinates":[[[[-166.172327,23.725536],[-166.173676,23.731142],[-166.175049,23.735339],[-166.173115,23.736266],[-166.170576,23.731486],[-166.169724,23.726048],[-166.172327,23.725536]]],[[[-166.213821,23.78393],[-166.214935,23.786917],[-166.212082,23.787283],[-166.208633,23.783916],[-166.209152,23.781681],[-166.211899,23.781967],[-166.213821,23.78393]]],[[[-166.225847,23.861635],[-166.224666,23.864837],[-166.21908,23.861348],[-166.216838,23.855303],[-166.220378,23.855087],[-166.223132,23.858613],[-166.225847,23.861635]]],[[[-166.292007,23.865603],[-166.291981,23.867203],[-166.287281,23.868946],[-166.282634,23.870474],[-166.281564,23.8678],[-166.29091,23.86503],[-166.292007,23.865603]]],[[[-166.245242,23.870918],[-166.246894,23.868147],[-166.251379,23.86991],[-166.250081,23.871889],[-166.245242,23.870918]]],[[[-167.998505,24.997116],[-168.000984,24.997373],[-168.002069,24.999967],[-168.000684,25.003127],[-167.997711,25.004431],[-167.99556,25.001871],[-167.995834,24.998215],[-167.998505,24.997116]]],[[[-171.73506,25.781772],[-171.730231,25.781092],[-171.725554,25.779315],[-171.725491,25.774108],[-171.727865,25.773145],[-171.729889,25.762855],[-171.733093,25.757305],[-171.737061,25.756331],[-171.742436,25.756145],[-171.745809,25.760138],[-171.7452,25.7709],[-171.743314,25.774001],[-171.743621,25.776892],[-171.740889,25.778692],[-171.737246,25.779677],[-171.73506,25.781772]]],[[[-173.962971,26.065123],[-173.964157,26.062327],[-173.969938,26.064554],[-173.97268,26.071096],[-173.976077,26.078607],[-173.972954,26.079864],[-173.966808,26.079034],[-173.964715,26.076477],[-173.96332,26.072359],[-173.962971,26.065123]]],[[[-175.930285,27.749854],[-175.935898,27.747883],[-175.943848,27.75689],[-175.936199,27.759988],[-175.930285,27.749854]]],[[[-175.905075,27.766842],[-175.895187,27.765072],[-175.895706,27.762028],[-175.904953,27.762661],[-175.906647,27.765076],[-175.905075,27.766842]]],[[[-175.814713,27.779062],[-175.818054,27.779791],[-175.816559,27.782473],[-175.812057,27.78273],[-175.807434,27.781155],[-175.807541,27.778721],[-175.811966,27.777546],[-175.814713,27.779062]]],[[[-175.857761,27.786716],[-175.856983,27.783619],[-175.863855,27.782701],[-175.864503,27.786257],[-175.857761,27.786716]]],[[[-175.744491,27.908539],[-175.743477,27.912461],[-175.741394,27.914927],[-175.737074,27.913469],[-175.73961,27.910556],[-175.740662,27.907433],[-175.744491,27.908539]]],[[[-175.739483,27.920976],[-175.741131,27.921536],[-175.741258,27.924056],[-175.736313,27.92949],[-175.732827,27.927865],[-175.734221,27.924729],[-175.737645,27.921872],[-175.739483,27.920976]]],[[[-178.288113,28.392374],[-178.2932,28.389271],[-178.304504,28.385405],[-178.334698,28.389446],[-178.333034,28.394464],[-178.30784,28.390074],[-178.297975,28.391614],[-178.288927,28.402123],[-178.288113,28.392374]]],[[[-156.049408,19.758086],[-156.050692,19.76169],[-156.050452,19.763032],[-156.050198,19.764453],[-156.049884,19.766209],[-156.049628,19.767641],[-156.049488,19.769211],[-156.049477,19.769328],[-156.049248,19.771897],[-156.046814,19.776834],[-156.040658,19.781799],[-156.037921,19.780887],[-156.036771,19.782401],[-156.036313,19.783004],[-156.036572,19.783568],[-156.038259,19.787242],[-156.033861,19.790099],[-156.026588,19.79257],[-156.026141,19.792722],[-156.024704,19.795571],[-156.021262,19.795905],[-156.020726,19.796533],[-156.01257,19.806086],[-156.006803,19.809925],[-156.006058,19.813614],[-156.000963,19.814694],[-156.001451,19.817813],[-155.998162,19.818613],[-155.996668,19.821719],[-155.997347,19.825398],[-155.989694,19.8304],[-155.986537,19.831057],[-155.985851,19.832079],[-155.986193,19.834902],[-155.981142,19.839432],[-155.979585,19.843196],[-155.972992,19.848029],[-155.961363,19.852296],[-155.949506,19.852969],[-155.945297,19.853443],[-155.942475,19.850291],[-155.93709,19.84957],[-155.9221,19.85717],[-155.924028,19.865462],[-155.923261,19.870486],[-155.91926,19.874562],[-155.915494,19.875252],[-155.912355,19.884072],[-155.908395,19.885158],[-155.90549,19.888261],[-155.904408,19.893293],[-155.904571,19.893688],[-155.905938,19.896999],[-155.900952,19.900326],[-155.901153,19.904645],[-155.89853,19.908991],[-155.890848,19.91197],[-155.888233,19.915237],[-155.890519,19.918529],[-155.891338,19.924799],[-155.89068,19.928616],[-155.886396,19.93278],[-155.881971,19.935472],[-155.877845,19.934649],[-155.878343,19.941625],[-155.87428,19.944927],[-155.87119,19.947161],[-155.863249,19.952147],[-155.862994,19.952787],[-155.858959,19.962928],[-155.852889,19.968384],[-155.847422,19.969054],[-155.841956,19.973075],[-155.836727,19.973522],[-155.832396,19.973927],[-155.831993,19.981887],[-155.831948,19.982775],[-155.83108,19.98649],[-155.826643,19.990816],[-155.827191,19.995824],[-155.82839,20.000547],[-155.825917,20.011494],[-155.824998,20.01577],[-155.82303,20.019016],[-155.823063,20.024939],[-155.823078,20.027628],[-155.829203,20.029317],[-155.829682,20.031475],[-155.827453,20.032543],[-155.827068,20.034253],[-155.827075,20.034262],[-155.833571,20.041829],[-155.838242,20.047272],[-155.838989,20.050204],[-155.843305,20.053169],[-155.843952,20.05646],[-155.848676,20.0609],[-155.850385,20.062506],[-155.855107,20.067594],[-155.859297,20.074493],[-155.862617,20.075158],[-155.864504,20.076434],[-155.865717,20.080516],[-155.870886,20.086523],[-155.875762,20.095095],[-155.879441,20.102965],[-155.88353,20.10619],[-155.882829,20.11177],[-155.89139,20.125511],[-155.892655,20.138079],[-155.895998,20.143418],[-155.895082,20.149063],[-155.899919,20.170028],[-155.901845,20.185199],[-155.904373,20.196116],[-155.901364,20.206102],[-155.902797,20.213327],[-155.898872,20.224865],[-155.899378,20.230087],[-155.892276,20.241269],[-155.889204,20.243496],[-155.888172,20.247636],[-155.887575,20.250029],[-155.886267,20.251811],[-155.882582,20.256834],[-155.876554,20.26104],[-155.868207,20.265088],[-155.860718,20.265842],[-155.850709,20.268043],[-155.847543,20.265045],[-155.837039,20.26703],[-155.833801,20.264379],[-155.830556,20.263595],[-155.827733,20.260698],[-155.825328,20.259833],[-155.822994,20.258994],[-155.81867,20.259624],[-155.817572,20.258512],[-155.817286,20.258404],[-155.815215,20.257622],[-155.810452,20.256709],[-155.807304,20.256105],[-155.806852,20.254917],[-155.800891,20.251778],[-155.797581,20.24817],[-155.792307,20.24934],[-155.790163,20.248384],[-155.787468,20.247182],[-155.781772,20.244643],[-155.778787,20.241984],[-155.776399,20.242521],[-155.775914,20.24263],[-155.7743,20.242993],[-155.771293,20.24644],[-155.764793,20.242101],[-155.762885,20.23966],[-155.762178,20.238756],[-155.757187,20.238756],[-155.753017,20.23615],[-155.748868,20.230727],[-155.744232,20.229361],[-155.737004,20.222773],[-155.731,20.220033],[-155.731359,20.214876],[-155.734132,20.210654],[-155.724918,20.201632],[-155.705848,20.190579],[-155.698805,20.186713],[-155.68525,20.179273],[-155.664501,20.170995],[-155.651653,20.165355],[-155.640184,20.155413],[-155.638606,20.147342],[-155.634307,20.144396],[-155.627657,20.143877],[-155.620759,20.142611],[-155.613391,20.137255],[-155.607797,20.137987],[-155.602216,20.129954],[-155.598033,20.124539],[-155.589068,20.119186],[-155.585594,20.119656],[-155.577666,20.120729],[-155.566568,20.127213],[-155.55611,20.129221],[-155.548871,20.126723],[-155.531446,20.120709],[-155.516795,20.11523],[-155.496842,20.112228],[-155.480766,20.10668],[-155.464905,20.101027],[-155.437823,20.092682],[-155.43511,20.091453],[-155.412551,20.081234],[-155.402056,20.075786],[-155.398528,20.071189],[-155.39021,20.066947],[-155.382123,20.063887],[-155.366917,20.057793],[-155.362249,20.055342],[-155.358741,20.0535],[-155.355349,20.051719],[-155.354871,20.051468],[-155.354542,20.051295],[-155.350756,20.049307],[-155.345476,20.049103],[-155.340772,20.044397],[-155.33021,20.038517],[-155.298514,20.024231],[-155.290959,20.021073],[-155.284644,20.01984],[-155.280276,20.018988],[-155.268705,20.012398],[-155.262321,20.006971],[-155.261889,20.005827],[-155.260671,20.005827],[-155.258942,20.004313],[-155.256545,20.003519],[-155.251596,20.00066],[-155.251473,20.000467],[-155.248034,19.995059],[-155.242222,19.994189],[-155.241547,19.994088],[-155.241164,19.994031],[-155.239985,19.993145],[-155.24068,19.99069],[-155.238328,19.987403],[-155.230736,19.984674],[-155.224156,19.980681],[-155.213512,19.975106],[-155.213146,19.974843],[-155.205639,19.969443],[-155.203161,19.967346],[-155.201817,19.966208],[-155.201665,19.964305],[-155.196891,19.960143],[-155.196147,19.955644],[-155.188604,19.954787],[-155.177263,19.947792],[-155.175643,19.945365],[-155.163341,19.936322],[-155.150633,19.92371],[-155.145571,19.919569],[-155.14147,19.917284],[-155.13504,19.909763],[-155.133066,19.906622],[-155.128358,19.90367],[-155.128661,19.900481],[-155.128611,19.900459],[-155.127345,19.89991],[-155.125421,19.900528],[-155.118992,19.888246],[-155.119953,19.885645],[-155.119028,19.883127],[-155.116188,19.881039],[-155.111889,19.880201],[-155.109697,19.878699],[-155.110456,19.876406],[-155.110525,19.876198],[-155.105125,19.869685],[-155.105078,19.869666],[-155.097349,19.866571],[-155.093056,19.864852],[-155.092707,19.864712],[-155.08852,19.859461],[-155.08837,19.858961],[-155.087572,19.856304],[-155.087541,19.856199],[-155.086693,19.853374],[-155.083346,19.85266],[-155.083223,19.852634],[-155.083159,19.852508],[-155.080751,19.847785],[-155.084303,19.843688],[-155.082289,19.835942],[-155.087406,19.81872],[-155.092635,19.809328],[-155.089944,19.80535],[-155.089307,19.804409],[-155.086501,19.803469],[-155.087785,19.797214],[-155.089983,19.79429],[-155.089464,19.788751],[-155.08609,19.783538],[-155.086812,19.778059],[-155.087406,19.773546],[-155.089525,19.769994],[-155.08913,19.76744],[-155.088849,19.765617],[-155.090213,19.75646],[-155.090387,19.755292],[-155.090408,19.75515],[-155.090733,19.752967],[-155.090036,19.74104],[-155.09002,19.734623],[-155.089922,19.734399],[-155.087118,19.728013],[-155.087039,19.72795],[-155.086654,19.727643],[-155.083128,19.724832],[-155.081939,19.723884],[-155.071219,19.724305],[-155.07053,19.724332],[-155.070293,19.727017],[-155.063972,19.728917],[-155.060785,19.726345],[-155.05366,19.732581],[-155.046099,19.732637],[-155.044371,19.734698],[-155.041058,19.73865],[-155.031079,19.738833],[-155.028699,19.735966],[-155.025133,19.735966],[-155.021093,19.733281],[-155.015826,19.735437],[-155.014676,19.738427],[-155.003524,19.73633],[-155.001279,19.734612],[-154.997278,19.72858],[-154.996662,19.727839],[-154.99303,19.723471],[-154.992461,19.722021],[-154.990536,19.717111],[-154.987168,19.708524],[-154.984197,19.704512],[-154.981163,19.694125],[-154.978073,19.688978],[-154.979024,19.681145],[-154.982629,19.673144],[-154.982973,19.658504],[-154.978548,19.652497],[-154.981645,19.648637],[-154.981278,19.644763],[-154.981163,19.643543],[-154.979574,19.637884],[-154.974342,19.633201],[-154.967448,19.629495],[-154.965326,19.628354],[-154.963933,19.627605],[-154.959992,19.623638],[-154.954436,19.624443],[-154.954167,19.624461],[-154.950027,19.624739],[-154.946988,19.623165],[-154.945273,19.622276],[-154.945266,19.621199],[-154.945249,19.618305],[-154.948258,19.611956],[-154.948008,19.610417],[-154.947846,19.609419],[-154.947152,19.605137],[-154.947106,19.604856],[-154.94689,19.604701],[-154.946191,19.604198],[-154.939569,19.599439],[-154.93352,19.596103],[-154.932755,19.595681],[-154.929663,19.593808],[-154.926021,19.591602],[-154.921629,19.583115],[-154.911998,19.579734],[-154.906294,19.571896],[-154.902634,19.568362],[-154.898871,19.566787],[-154.893253,19.564436],[-154.88838,19.562397],[-154.887387,19.561258],[-154.883833,19.55718],[-154.879669,19.555913],[-154.876802,19.55596],[-154.874682,19.555995],[-154.866839,19.549052],[-154.850098,19.54646],[-154.837384,19.538354],[-154.832456,19.535065],[-154.825049,19.53488],[-154.814857,19.529323],[-154.811349,19.526784],[-154.809561,19.522377],[-154.806947,19.519499],[-154.806879,19.518142],[-154.806773,19.516041],[-154.811697,19.512091],[-154.811185,19.506574],[-154.816912,19.489098],[-154.819105,19.486307],[-154.819348,19.481663],[-154.820265,19.478865],[-154.826813,19.471227],[-154.831399,19.468262],[-154.835227,19.461677],[-154.864973,19.436098],[-154.87183,19.432704],[-154.873701,19.431778],[-154.879518,19.425621],[-154.885694,19.422831],[-154.88919,19.415574],[-154.909144,19.406536],[-154.923882,19.394657],[-154.928592,19.394837],[-154.934035,19.384177],[-154.948898,19.372623],[-154.961223,19.362064],[-154.965599,19.358315],[-154.966198,19.357642],[-154.969409,19.35403],[-154.971873,19.349944],[-154.982128,19.344749],[-154.989123,19.341206],[-155.004793,19.333257],[-155.012131,19.332185],[-155.016501,19.328519],[-155.017329,19.327825],[-155.04042,19.320538],[-155.048592,19.314273],[-155.061974,19.311236],[-155.071216,19.311657],[-155.078374,19.305628],[-155.088531,19.297609],[-155.097983,19.294936],[-155.112302,19.285915],[-155.120162,19.279443],[-155.129839,19.273985],[-155.136049,19.273624],[-155.142375,19.273317],[-155.149211,19.269217],[-155.157097,19.265271],[-155.162988,19.264349],[-155.16988,19.265471],[-155.174866,19.264078],[-155.184716,19.263258],[-155.189493,19.260274],[-155.191933,19.256122],[-155.194361,19.257394],[-155.197788,19.258077],[-155.205267,19.257492],[-155.207765,19.256463],[-155.222056,19.260705],[-155.224716,19.260248],[-155.232903,19.262602],[-155.234295,19.26579],[-155.243137,19.26868],[-155.249102,19.267855],[-155.255627,19.270529],[-155.258846,19.269343],[-155.262532,19.271205],[-155.275206,19.266148],[-155.285363,19.265374],[-155.293236,19.263901],[-155.304632,19.255334],[-155.31084,19.247491],[-155.317876,19.242461],[-155.333988,19.234936],[-155.338861,19.231076],[-155.338958,19.228994],[-155.342047,19.225434],[-155.344193,19.219664],[-155.346358,19.217542],[-155.347037,19.214548],[-155.357979,19.206535],[-155.373923,19.200006],[-155.38614,19.198637],[-155.394224,19.194565],[-155.399156,19.188329],[-155.403061,19.187102],[-155.407101,19.187315],[-155.41469,19.184747],[-155.41794,19.180382],[-155.42422,19.176178],[-155.430084,19.167193],[-155.443147,19.15773],[-155.446043,19.152594],[-155.450074,19.149054],[-155.463853,19.143988],[-155.469408,19.144543],[-155.477139,19.141723],[-155.483869,19.13833],[-155.496656,19.136108],[-155.501258,19.134858],[-155.504895,19.132387],[-155.506044,19.131606],[-155.509994,19.129003],[-155.509672,19.121625],[-155.51474,19.118664],[-155.517368,19.113278],[-155.522536,19.1132],[-155.525848,19.111466],[-155.53296,19.102649],[-155.541536,19.090501],[-155.54288,19.085806],[-155.549217,19.085428],[-155.553029,19.080326],[-155.554922,19.077791],[-155.553359,19.072865],[-155.552931,19.06474],[-155.551756,19.051739],[-155.553892,19.045524],[-155.558505,19.037482],[-155.565147,19.02873],[-155.568726,19.026088],[-155.575837,19.023648],[-155.580017,19.018045],[-155.584899,19.004218],[-155.590292,18.999101],[-155.593728,18.995253],[-155.593764,18.977782],[-155.596991,18.974656],[-155.599188,18.968396],[-155.606125,18.968856],[-155.609508,18.966026],[-155.612915,18.968812],[-155.61957,18.967688],[-155.621749,18.962714],[-155.622366,18.957637],[-155.622467,18.957446],[-155.623173,18.956116],[-155.626269,18.950279],[-155.627341,18.948258],[-155.627416,18.948116],[-155.631826,18.945466],[-155.632254,18.945209],[-155.632523,18.942567],[-155.632643,18.941388],[-155.635385,18.938811],[-155.638115,18.936246],[-155.643395,18.935091],[-155.645988,18.933226],[-155.649604,18.927277],[-155.651243,18.925746],[-155.652766,18.924322],[-155.65477,18.92245],[-155.657579,18.920931],[-155.661274,18.918931],[-155.663833,18.917547],[-155.66905,18.916474],[-155.669818,18.915659],[-155.673073,18.912205],[-155.677423,18.911088],[-155.677581,18.911048],[-155.678609,18.910913],[-155.680962,18.910602],[-155.682793,18.910361],[-155.683368,18.913902],[-155.684023,18.917933],[-155.682867,18.924571],[-155.683982,18.934193],[-155.688084,18.939498],[-155.6969,18.9463],[-155.701295,18.94772],[-155.705716,18.95019],[-155.707307,18.954153],[-155.714848,18.960305],[-155.719225,18.961019],[-155.723613,18.966437],[-155.72905,18.967566],[-155.734836,18.969956],[-155.741315,18.970149],[-155.75474,18.976207],[-155.759188,18.977259],[-155.763109,18.983011],[-155.775587,18.989942],[-155.785865,18.998032],[-155.789726,18.999249],[-155.801011,19.010114],[-155.807314,19.010245],[-155.827444,19.01608],[-155.835195,19.018327],[-155.843918,19.019598],[-155.85045,19.019404],[-155.854444,19.022859],[-155.861052,19.024657],[-155.867049,19.029784],[-155.879592,19.033534],[-155.88155,19.036644],[-155.881436,19.046574],[-155.883292,19.052066],[-155.886278,19.05576],[-155.890102,19.060201],[-155.897244,19.071014],[-155.903598,19.077566],[-155.906779,19.079894],[-155.907292,19.082185],[-155.907693,19.083972],[-155.911072,19.096056],[-155.91829,19.114805],[-155.916933,19.127639],[-155.918183,19.134375],[-155.914245,19.139944],[-155.911176,19.146057],[-155.910253,19.151227],[-155.914626,19.152666],[-155.916432,19.156616],[-155.912048,19.165565],[-155.908631,19.168591],[-155.908275,19.171898],[-155.90775,19.176786],[-155.91049,19.181311],[-155.908037,19.186729],[-155.905643,19.202559],[-155.899276,19.21028],[-155.901182,19.21542],[-155.902206,19.223091],[-155.900722,19.232385],[-155.897291,19.240221],[-155.900633,19.247464],[-155.899355,19.256578],[-155.895813,19.262795],[-155.891539,19.276491],[-155.891289,19.28453],[-155.888696,19.289042],[-155.889675,19.293542],[-155.888335,19.296554],[-155.89005,19.300693],[-155.887782,19.306795],[-155.887691,19.313249],[-155.890671,19.318544],[-155.889657,19.324221],[-155.885179,19.329395],[-155.885241,19.338821],[-155.886722,19.345552],[-155.890536,19.355854],[-155.898792,19.377984],[-155.910858,19.396513],[-155.910416,19.399926],[-155.904876,19.410315],[-155.904998,19.410463],[-155.909087,19.415455],[-155.909619,19.415957],[-155.914351,19.420419],[-155.913574,19.421535],[-155.912154,19.423575],[-155.913105,19.425368],[-155.917193,19.426038],[-155.919768,19.430429],[-155.921415,19.435899],[-155.920235,19.445765],[-155.922256,19.449149],[-155.921919,19.453177],[-155.927767,19.458812],[-155.922487,19.465415],[-155.921424,19.471537],[-155.91976,19.475346],[-155.922609,19.478611],[-155.924124,19.481406],[-155.92998,19.482965],[-155.933308,19.482517],[-155.933762,19.479307],[-155.93379,19.479111],[-155.937253,19.479067],[-155.941043,19.483078],[-155.94652,19.48316],[-155.950425,19.486648],[-155.948198,19.495474],[-155.951847,19.504922],[-155.957551,19.514108],[-155.960166,19.515004],[-155.960213,19.520158],[-155.955965,19.525153],[-155.955909,19.529052],[-155.955858,19.532626],[-155.961169,19.550853],[-155.964573,19.551886],[-155.966682,19.553979],[-155.965535,19.558936],[-155.963938,19.559974],[-155.963947,19.560421],[-155.963984,19.56228],[-155.967911,19.568245],[-155.968004,19.577679],[-155.966417,19.580518],[-155.971018,19.587103],[-155.97139,19.587635],[-155.971982,19.594587],[-155.975224,19.598501],[-155.975907,19.599326],[-155.976427,19.599954],[-155.974341,19.60304],[-155.973787,19.603859],[-155.975114,19.60529],[-155.978857,19.609327],[-155.985913,19.616935],[-155.986978,19.620752],[-155.985564,19.623315],[-155.986812,19.625255],[-155.987209,19.625872],[-155.991311,19.63225],[-155.991302,19.636156],[-155.992881,19.637239],[-155.994165,19.63812],[-155.99566,19.639145],[-155.996547,19.638817],[-156.000792,19.637245],[-156.002241,19.638091],[-156.014268,19.645107],[-156.016706,19.647573],[-156.024019,19.647366],[-156.028982,19.650098],[-156.032438,19.656],[-156.031142,19.660281],[-156.030994,19.667046],[-156.027904,19.668388],[-156.027839,19.668899],[-156.027427,19.672154],[-156.02684,19.676198],[-156.03242,19.679579],[-156.035097,19.684104],[-156.034204,19.687124],[-156.035987,19.690099],[-156.036079,19.690252],[-156.039135,19.692486],[-156.044356,19.692885],[-156.045066,19.694077],[-156.04796,19.698938],[-156.048098,19.699629],[-156.048586,19.702063],[-156.049058,19.704418],[-156.049471,19.714373],[-156.052485,19.718667],[-156.061509,19.72801],[-156.060759,19.730549],[-156.056663,19.732834],[-156.053088,19.736702],[-156.054522,19.747697],[-156.050692,19.750592],[-156.049408,19.758086]]],[[[-156.684207,20.547072],[-156.680561,20.549424],[-156.678735,20.551557],[-156.677457,20.554975],[-156.673345,20.556659],[-156.665684,20.557987],[-156.659889,20.560923],[-156.650611,20.562374],[-156.645643,20.563503],[-156.641936,20.56707],[-156.636082,20.571361],[-156.632383,20.572533],[-156.623964,20.579433],[-156.621471,20.580759],[-156.61378,20.58419],[-156.611241,20.588294],[-156.608726,20.590123],[-156.597095,20.596128],[-156.588112,20.600152],[-156.579921,20.602735],[-156.575305,20.603415],[-156.568405,20.60309],[-156.565001,20.602008],[-156.562333,20.598585],[-156.553604,20.594729],[-156.549719,20.589358],[-156.539028,20.576176],[-156.53879,20.57273],[-156.537974,20.568579],[-156.547994,20.56488],[-156.546708,20.559823],[-156.547858,20.552112],[-156.55331,20.545518],[-156.551965,20.543741],[-156.55403,20.540486],[-156.554044,20.536882],[-156.550716,20.534211],[-156.543633,20.537373],[-156.540977,20.535693],[-156.539334,20.534019],[-156.533582,20.534426],[-156.531786,20.528257],[-156.534287,20.525121],[-156.539077,20.521887],[-156.541267,20.520161],[-156.541005,20.516022],[-156.545203,20.512031],[-156.548155,20.512518],[-156.550267,20.515533],[-156.553274,20.51747],[-156.557333,20.518335],[-156.559341,20.515405],[-156.562549,20.514964],[-156.56735,20.516114],[-156.570928,20.514983],[-156.573307,20.513372],[-156.573933,20.511118],[-156.578771,20.511351],[-156.583381,20.509499],[-156.583893,20.508014],[-156.587343,20.508417],[-156.591055,20.512006],[-156.592954,20.515278],[-156.603332,20.515744],[-156.609159,20.512986],[-156.610619,20.51649],[-156.622231,20.513929],[-156.630819,20.510438],[-156.640295,20.505008],[-156.643604,20.507303],[-156.644589,20.509266],[-156.644161,20.510945],[-156.645372,20.51272],[-156.646105,20.515914],[-156.648504,20.514471],[-156.650929,20.511112],[-156.652167,20.510804],[-156.654213,20.507847],[-156.656394,20.505465],[-156.662251,20.503631],[-156.663428,20.501301],[-156.666309,20.500913],[-156.668902,20.503888],[-156.670533,20.503206],[-156.672608,20.501009],[-156.676917,20.504024],[-156.679534,20.503393],[-156.682352,20.505141],[-156.682939,20.506775],[-156.685852,20.508432],[-156.6832,20.5122],[-156.685223,20.515314],[-156.688715,20.516458],[-156.691703,20.516458],[-156.694559,20.51903],[-156.696026,20.522471],[-156.697827,20.521973],[-156.700986,20.524817],[-156.700001,20.527924],[-156.698337,20.533021],[-156.693822,20.538458],[-156.687694,20.542553],[-156.687329,20.54444],[-156.684207,20.547072]]],[[[-156.692711,20.940485],[-156.692294,20.947096],[-156.690369,20.950574],[-156.690169,20.950936],[-156.688785,20.953437],[-156.686967,20.955495],[-156.686476,20.956051],[-156.6841,20.963785],[-156.679917,20.973153],[-156.679313,20.974021],[-156.677329,20.976874],[-156.67695,20.977419],[-156.673348,20.982598],[-156.669057,20.990785],[-156.668411,20.992018],[-156.667209,20.994311],[-156.666213,20.996211],[-156.666799,20.99862],[-156.665726,21.003793],[-156.659375,21.003737],[-156.655553,21.005714],[-156.653499,21.004502],[-156.649468,21.005172],[-156.64933,21.005359],[-156.64687,21.008699],[-156.64656,21.00912],[-156.646364,21.009387],[-156.64538,21.010723],[-156.638427,21.01283],[-156.637781,21.013026],[-156.637561,21.014951],[-156.641099,21.018847],[-156.641085,21.023277],[-156.634045,21.025137],[-156.624951,21.021811],[-156.618697,21.024342],[-156.616043,21.024512],[-156.613386,21.023323],[-156.60811,21.024686],[-156.603319,21.031191],[-156.593698,21.030948],[-156.592498,21.028975],[-156.588534,21.030817],[-156.588209,21.024212],[-156.584441,21.021673],[-156.584264,21.02111],[-156.583475,21.018602],[-156.578704,21.016858],[-156.573365,21.017872],[-156.569337,21.015942],[-156.565684,21.011853],[-156.560135,21.013881],[-156.554946,21.00863],[-156.552119,21.000707],[-156.549504,20.998267],[-156.545667,21.002308],[-156.543674,21.001301],[-156.541197,20.995916],[-156.538131,20.98925],[-156.53569,20.984966],[-156.530978,20.984642],[-156.525405,20.987306],[-156.525007,20.981081],[-156.525681,20.972523],[-156.525159,20.964262],[-156.520934,20.961917],[-156.518131,20.956544],[-156.515978,20.952108],[-156.509354,20.947958],[-156.508439,20.947385],[-156.507872,20.939884],[-156.507263,20.936846],[-156.504241,20.934424],[-156.496415,20.930872],[-156.49251,20.922798],[-156.491496,20.918001],[-156.491457,20.917817],[-156.491661,20.916243],[-156.491774,20.915368],[-156.48747,20.909482],[-156.485367,20.910908],[-156.484861,20.910187],[-156.481123,20.904859],[-156.480898,20.901494],[-156.480855,20.900856],[-156.480429,20.89984],[-156.47969,20.898075],[-156.474242,20.900393],[-156.47147,20.90072],[-156.467972,20.898607],[-156.46072,20.897731],[-156.45839,20.897449],[-156.44977,20.897104],[-156.446912,20.898484],[-156.436887,20.903326],[-156.43084,20.906858],[-156.425321,20.9098],[-156.421737,20.910323],[-156.418826,20.908254],[-156.41165,20.909704],[-156.404753,20.91236],[-156.396834,20.913136],[-156.39348,20.914964],[-156.393295,20.915065],[-156.383699,20.915983],[-156.38123,20.919232],[-156.378047,20.921097],[-156.373621,20.923691],[-156.369326,20.929339],[-156.363075,20.932263],[-156.355606,20.935757],[-156.349303,20.938553],[-156.341297,20.938787],[-156.341166,20.938783],[-156.336702,20.938655],[-156.333373,20.94233],[-156.328733,20.944726],[-156.325031,20.943621],[-156.321763,20.947099],[-156.314985,20.945037],[-156.307035,20.939755],[-156.301453,20.941209],[-156.296234,20.942728],[-156.282135,20.945568],[-156.279065,20.943108],[-156.275116,20.937361],[-156.27356,20.934639],[-156.27161,20.934708],[-156.268785,20.934809],[-156.262495,20.939618],[-156.255732,20.934125],[-156.255622,20.934156],[-156.25364,20.934714],[-156.252362,20.937966],[-156.240283,20.935901],[-156.235292,20.931017],[-156.231964,20.928575],[-156.227414,20.92866],[-156.226076,20.921231],[-156.227519,20.915757],[-156.224809,20.914026],[-156.219711,20.915391],[-156.214185,20.913127],[-156.21447,20.909163],[-156.213721,20.907865],[-156.214221,20.9056],[-156.212224,20.904967],[-156.212153,20.903701],[-156.2098,20.903135],[-156.202899,20.897948],[-156.19846,20.895058],[-156.194273,20.894228],[-156.193371,20.893241],[-156.192036,20.89178],[-156.192802,20.8897],[-156.191127,20.887631],[-156.185802,20.884468],[-156.181418,20.879512],[-156.174446,20.87684],[-156.16684,20.871288],[-156.166746,20.865646],[-156.16154,20.863343],[-156.158233,20.862044],[-156.155907,20.859517],[-156.152347,20.859801],[-156.146922,20.865185],[-156.14426,20.865292],[-156.144196,20.85811],[-156.130357,20.859452],[-156.129539,20.856496],[-156.129308,20.855657],[-156.129047,20.854715],[-156.128247,20.848155],[-156.127561,20.842522],[-156.127385,20.841082],[-156.121163,20.838048],[-156.115408,20.830464],[-156.116091,20.826631],[-156.106659,20.823032],[-156.103617,20.824762],[-156.097475,20.825056],[-156.087663,20.828257],[-156.072263,20.818618],[-156.065858,20.816155],[-156.063426,20.811844],[-156.060956,20.810924],[-156.056898,20.807078],[-156.051148,20.806457],[-156.048546,20.807288],[-156.044427,20.805205],[-156.040401,20.804853],[-156.038615,20.806166],[-156.036259,20.805506],[-156.022229,20.801574],[-156.018987,20.799048],[-156.014038,20.796834],[-156.009675,20.796889],[-156.000478,20.791474],[-156.000474,20.790941],[-156.000433,20.786055],[-155.996747,20.785069],[-155.987944,20.776552],[-155.985115,20.773546],[-155.984409,20.767764],[-155.983543,20.766355],[-155.981151,20.765788],[-155.979812,20.765909],[-155.978948,20.764611],[-155.980219,20.763615],[-155.983178,20.762981],[-155.985496,20.762415],[-155.986401,20.759852],[-155.98464,20.757414],[-155.983856,20.755781],[-155.981966,20.755914],[-155.97972,20.757147],[-155.979051,20.755922],[-155.979272,20.753101],[-155.981313,20.751924],[-155.982852,20.750082],[-155.982849,20.741807],[-155.982968,20.74102],[-155.984067,20.733737],[-155.985717,20.731415],[-155.983186,20.727035],[-155.983351,20.721752],[-155.987756,20.716374],[-155.987629,20.708191],[-155.993532,20.705443],[-155.996827,20.70021],[-155.998588,20.694906],[-156.005378,20.688157],[-156.012798,20.682123],[-156.016919,20.683796],[-156.020538,20.68126],[-156.025325,20.679997],[-156.02851,20.679286],[-156.031395,20.675043],[-156.03426,20.673519],[-156.037305,20.670003],[-156.040805,20.667248],[-156.040394,20.661051],[-156.046622,20.652595],[-156.049877,20.650564],[-156.055401,20.650459],[-156.064677,20.646529],[-156.072667,20.647875],[-156.078742,20.651103],[-156.084772,20.646764],[-156.093706,20.641757],[-156.104092,20.641034],[-156.110748,20.639699],[-156.112299,20.635057],[-156.119252,20.63017],[-156.123857,20.630056],[-156.128008,20.623091],[-156.13404,20.623684],[-156.135788,20.620088],[-156.139031,20.618123],[-156.144588,20.624032],[-156.154391,20.626317],[-156.163512,20.621904],[-156.1667,20.624699],[-156.170516,20.621088],[-156.176928,20.622557],[-156.178729,20.626997],[-156.186783,20.62693],[-156.191312,20.628503],[-156.205344,20.625463],[-156.213313,20.623145],[-156.219031,20.620638],[-156.222795,20.618988],[-156.227437,20.614802],[-156.23182,20.612305],[-156.234103,20.611004],[-156.234988,20.610966],[-156.238239,20.610826],[-156.243646,20.608316],[-156.243879,20.608208],[-156.246124,20.605517],[-156.248748,20.605925],[-156.252093,20.603855],[-156.257176,20.60071],[-156.257311,20.600627],[-156.258706,20.599724],[-156.261627,20.597833],[-156.26233,20.598032],[-156.264576,20.598668],[-156.27724,20.593567],[-156.281891,20.592172],[-156.283242,20.591767],[-156.286561,20.587833],[-156.290756,20.585482],[-156.299613,20.583083],[-156.30495,20.583774],[-156.314394,20.584423],[-156.323043,20.585018],[-156.33244,20.583563],[-156.335724,20.58097],[-156.339674,20.580416],[-156.341543,20.583108],[-156.348655,20.583512],[-156.350252,20.580525],[-156.354658,20.580383],[-156.357557,20.578425],[-156.365084,20.577535],[-156.367796,20.575737],[-156.373794,20.574916],[-156.378306,20.577722],[-156.382038,20.578837],[-156.383795,20.580824],[-156.386719,20.579512],[-156.39602,20.580368],[-156.397569,20.582024],[-156.398574,20.581993],[-156.399267,20.580142],[-156.402234,20.580178],[-156.403625,20.583227],[-156.412305,20.582901],[-156.414215,20.586402],[-156.412713,20.590595],[-156.41409,20.594744],[-156.417146,20.597208],[-156.420284,20.599177],[-156.421656,20.598969],[-156.422872,20.596162],[-156.424827,20.595672],[-156.426425,20.594474],[-156.435515,20.598247],[-156.436897,20.599735],[-156.437287,20.600762],[-156.4407,20.604285],[-156.440171,20.609462],[-156.436904,20.614004],[-156.439256,20.621268],[-156.446114,20.62969],[-156.452238,20.633686],[-156.453719,20.63703],[-156.450667,20.639124],[-156.447463,20.639813],[-156.446668,20.644604],[-156.446641,20.644623],[-156.446431,20.644771],[-156.442794,20.647343],[-156.441863,20.650899],[-156.44136,20.652822],[-156.442251,20.654053],[-156.443673,20.656018],[-156.44354,20.656317],[-156.442449,20.658769],[-156.441862,20.660089],[-156.442582,20.665774],[-156.444821,20.667244],[-156.445083,20.679764],[-156.445401,20.686401],[-156.445026,20.688703],[-156.444565,20.69153],[-156.445892,20.701332],[-156.446005,20.702163],[-156.447777,20.705523],[-156.446319,20.711303],[-156.446929,20.714745],[-156.447731,20.71927],[-156.448229,20.722078],[-156.451038,20.725469],[-156.452895,20.731287],[-156.455637,20.734789],[-156.456377,20.735735],[-156.458964,20.747909],[-156.459977,20.752675],[-156.459707,20.768302],[-156.459671,20.770369],[-156.460548,20.774838],[-156.461259,20.778465],[-156.464043,20.781667],[-156.47293,20.789548],[-156.473922,20.790428],[-156.47754,20.791591],[-156.484572,20.79385],[-156.488524,20.79512],[-156.489473,20.795425],[-156.499709,20.796466],[-156.506182,20.79512],[-156.510871,20.790437],[-156.515384,20.787675],[-156.519557,20.779762],[-156.521673,20.778516],[-156.525974,20.775984],[-156.537675,20.774587],[-156.543657,20.780135],[-156.543825,20.780225],[-156.566495,20.792383],[-156.583683,20.794971],[-156.591383,20.799176],[-156.5995,20.805743],[-156.605219,20.808387],[-156.608139,20.809736],[-156.613085,20.809886],[-156.618366,20.807581],[-156.622925,20.808975],[-156.627683,20.813951],[-156.630462,20.822192],[-156.637379,20.829109],[-156.639608,20.831338],[-156.640519,20.832249],[-156.646549,20.834078],[-156.649612,20.837559],[-156.650894,20.839016],[-156.652791,20.842224],[-156.653701,20.843763],[-156.664499,20.854741],[-156.665726,20.855987],[-156.667676,20.85797],[-156.673573,20.861294],[-156.678327,20.868401],[-156.67872,20.870039],[-156.679842,20.874723],[-156.683056,20.876877],[-156.686646,20.879283],[-156.68926,20.881948],[-156.687516,20.883903],[-156.686355,20.88567],[-156.685379,20.887156],[-156.685656,20.891262],[-156.685543,20.893556],[-156.685117,20.902218],[-156.688132,20.906325],[-156.691334,20.91244],[-156.694347,20.914385],[-156.696629,20.915859],[-156.697418,20.916368],[-156.69572,20.926467],[-156.69544,20.928131],[-156.695123,20.928828],[-156.693175,20.933115],[-156.692711,20.940485]]],[[[-157.021734,20.926044],[-157.007394,20.926399],[-157.001452,20.927731],[-156.993371,20.927731],[-156.986954,20.928841],[-156.977684,20.926177],[-156.968415,20.923291],[-156.952253,20.922847],[-156.942392,20.922148],[-156.937387,20.923416],[-156.923166,20.919961],[-156.915287,20.919647],[-156.900389,20.9149],[-156.893285,20.911689],[-156.884757,20.904394],[-156.882539,20.904463],[-156.869704,20.892928],[-156.837047,20.863575],[-156.828816,20.855883],[-156.825237,20.850731],[-156.821438,20.846839],[-156.812037,20.830352],[-156.809544,20.827791],[-156.805908,20.821668],[-156.806234,20.806604],[-156.814151,20.791774],[-156.821917,20.783035],[-156.82839,20.770546],[-156.829848,20.766917],[-156.832422,20.765891],[-156.836869,20.760285],[-156.84268,20.757557],[-156.8476,20.757231],[-156.851897,20.757898],[-156.857202,20.754613],[-156.866548,20.751644],[-156.87184,20.746387],[-156.876699,20.743531],[-156.880525,20.74205],[-156.884192,20.744342],[-156.884752,20.744692],[-156.885853,20.743833],[-156.887604,20.742469],[-156.887557,20.741859],[-156.887366,20.739402],[-156.890384,20.735022],[-156.893104,20.735678],[-156.894021,20.739357],[-156.897824,20.740024],[-156.897944,20.739927],[-156.899749,20.738472],[-156.901256,20.737257],[-156.904403,20.736442],[-156.906922,20.73579],[-156.90763,20.735935],[-156.910612,20.736546],[-156.913524,20.737142],[-156.916953,20.737321],[-156.918539,20.737404],[-156.921599,20.734762],[-156.930446,20.736129],[-156.934724,20.734133],[-156.937992,20.736468],[-156.945588,20.735759],[-156.955827,20.734436],[-156.95915,20.733227],[-156.963338,20.731927],[-156.9664,20.733359],[-156.966281,20.736624],[-156.973045,20.745182],[-156.976782,20.747425],[-156.981926,20.753522],[-156.989359,20.77929],[-156.991522,20.779866],[-156.992229,20.78717],[-156.990046,20.791138],[-156.990454,20.793558],[-156.990253,20.796456],[-156.988136,20.797159],[-156.989976,20.800453],[-156.988139,20.806982],[-156.987905,20.817396],[-156.991834,20.826603],[-157.002509,20.843464],[-157.005919,20.847214],[-157.006243,20.849603],[-157.011197,20.854009],[-157.031848,20.863259],[-157.035356,20.862881],[-157.037444,20.86444],[-157.037895,20.866292],[-157.040072,20.86772],[-157.042221,20.866877],[-157.046037,20.870078],[-157.049665,20.870196],[-157.051519,20.87286],[-157.053145,20.875672],[-157.054552,20.877219],[-157.054244,20.878998],[-157.058258,20.883547],[-157.061128,20.890635],[-157.060242,20.901924],[-157.056357,20.910459],[-157.052051,20.913938],[-157.048027,20.914618],[-157.035473,20.922419],[-157.021734,20.926044]]],[[[-157.296737,21.133047],[-157.292371,21.13585],[-157.290723,21.138922],[-157.291064,21.143019],[-157.288435,21.146829],[-157.283019,21.152754],[-157.27722,21.158431],[-157.273376,21.159753],[-157.269854,21.16043],[-157.25672,21.171067],[-157.251375,21.177816],[-157.252443,21.182337],[-157.249695,21.184401],[-157.248309,21.188723],[-157.249559,21.191493],[-157.24765,21.196767],[-157.25026,21.207739],[-157.256101,21.212996],[-157.258914,21.215413],[-157.260286,21.219155],[-157.257522,21.222394],[-157.254104,21.224145],[-157.253915,21.224073],[-157.245989,21.221072],[-157.244017,21.219635],[-157.238832,21.217828],[-157.232133,21.218108],[-157.22107,21.217406],[-157.215592,21.218054],[-157.212082,21.221848],[-157.202957,21.215298],[-157.200485,21.21713],[-157.196473,21.214228],[-157.192439,21.207644],[-157.186795,21.203334],[-157.180873,21.20281],[-157.178558,21.203276],[-157.171172,21.201322],[-157.161638,21.201764],[-157.157135,21.201577],[-157.156419,21.19877],[-157.154518,21.197662],[-157.151428,21.197883],[-157.146897,21.197542],[-157.143128,21.197217],[-157.143016,21.1994],[-157.136229,21.199215],[-157.136004,21.199226],[-157.133307,21.19936],[-157.129807,21.199534],[-157.121354,21.196813],[-157.118436,21.197429],[-157.112425,21.195193],[-157.111854,21.195191],[-157.107118,21.195175],[-157.107042,21.195175],[-157.101701,21.196131],[-157.101605,21.196148],[-157.094301,21.19508],[-157.092742,21.194852],[-157.082048,21.190807],[-157.073775,21.188596],[-157.066504,21.188579],[-157.06515,21.188576],[-157.060073,21.185781],[-157.049924,21.185827],[-157.043198,21.188288],[-157.035033,21.187524],[-157.025694,21.186146],[-157.015897,21.183847],[-157.014591,21.183525],[-157.011921,21.182867],[-157.006983,21.181649],[-157.004152,21.180951],[-157.003898,21.180876],[-156.998212,21.179188],[-156.988997,21.182192],[-156.985351,21.185919],[-156.984651,21.18899],[-156.9828,21.197726],[-156.982438,21.201207],[-156.979693,21.202295],[-156.980033,21.204597],[-156.980186,21.205631],[-156.982343,21.207798],[-156.980299,21.209849],[-156.976519,21.21279],[-156.970613,21.215519],[-156.965529,21.213602],[-156.962847,21.212131],[-156.959901,21.208833],[-156.957338,21.204897],[-156.956589,21.200906],[-156.948212,21.188354],[-156.947155,21.178855],[-156.943696,21.176165],[-156.943908,21.172949],[-156.938405,21.17176],[-156.933844,21.169447],[-156.927694,21.171729],[-156.925015,21.169379],[-156.918878,21.167907],[-156.918094,21.168574],[-156.91507,21.171147],[-156.914239,21.169123],[-156.913553,21.165912],[-156.908167,21.164215],[-156.903466,21.16421],[-156.901389,21.16198],[-156.89616,21.16331],[-156.89212,21.168629],[-156.884989,21.168629],[-156.884039,21.166191],[-156.883325,21.161758],[-156.879285,21.161093],[-156.876433,21.16597],[-156.867944,21.16452],[-156.865863,21.161389],[-156.856064,21.16354],[-156.850137,21.164412],[-156.848354,21.165877],[-156.842651,21.166826],[-156.837952,21.164492],[-156.830658,21.164116],[-156.827163,21.168358],[-156.8242,21.168057],[-156.819188,21.171376],[-156.810342,21.172985],[-156.803869,21.175219],[-156.798964,21.173358],[-156.796097,21.168851],[-156.790393,21.168408],[-156.787541,21.171067],[-156.784295,21.174085],[-156.779655,21.17311],[-156.776845,21.174835],[-156.773022,21.173722],[-156.77016,21.17622],[-156.759183,21.174547],[-156.756545,21.17441],[-156.739054,21.173505],[-156.735013,21.168851],[-156.735726,21.159542],[-156.731657,21.159251],[-156.72865,21.157535],[-156.717084,21.160504],[-156.709106,21.158655],[-156.711134,21.152882],[-156.712434,21.144025],[-156.716023,21.140946],[-156.722892,21.12895],[-156.730074,21.124044],[-156.735964,21.114095],[-156.739342,21.111336],[-156.743412,21.110861],[-156.744769,21.106899],[-156.757979,21.096564],[-156.765592,21.092139],[-156.77409,21.085346],[-156.774944,21.082164],[-156.781592,21.081964],[-156.787121,21.079036],[-156.790868,21.072184],[-156.797071,21.070954],[-156.8022,21.067095],[-156.811527,21.066044],[-156.817056,21.065421],[-156.818583,21.063875],[-156.818933,21.06352],[-156.821766,21.060651],[-156.826778,21.06067],[-156.833175,21.057324],[-156.836006,21.053916],[-156.843659,21.054196],[-156.845868,21.052898],[-156.849083,21.05101],[-156.848387,21.054884],[-156.851239,21.057102],[-156.857751,21.055731],[-156.860508,21.052],[-156.865737,21.04956],[-156.869538,21.049473],[-156.873078,21.048659],[-156.874496,21.045478],[-156.883763,21.047123],[-156.886705,21.048816],[-156.892595,21.049338],[-156.892906,21.053004],[-156.89517,21.055771],[-156.89649,21.055441],[-156.900464,21.054446],[-156.914283,21.056704],[-156.920814,21.05949],[-156.93118,21.060453],[-156.934859,21.060795],[-156.942704,21.062913],[-156.948526,21.063388],[-156.953872,21.066128],[-156.965629,21.068193],[-156.97233,21.070902],[-156.977701,21.070616],[-156.980955,21.070442],[-156.982467,21.073481],[-156.984371,21.074392],[-156.987041,21.07567],[-156.988157,21.076204],[-156.989274,21.076738],[-156.989454,21.076824],[-156.992298,21.078185],[-156.994683,21.078151],[-156.995548,21.078138],[-156.997986,21.078103],[-156.998674,21.077737],[-157.00052,21.076755],[-157.002883,21.078213],[-157.003253,21.080036],[-157.004637,21.080428],[-157.007632,21.081277],[-157.009509,21.081981],[-157.013145,21.083343],[-157.018684,21.08542],[-157.023488,21.085723],[-157.026646,21.087708],[-157.028137,21.087754],[-157.029426,21.087793],[-157.034027,21.094282],[-157.035111,21.094556],[-157.03779,21.095234],[-157.040938,21.09603],[-157.04128,21.096021],[-157.04852,21.095821],[-157.059775,21.099436],[-157.066278,21.100414],[-157.066866,21.100502],[-157.07109,21.099124],[-157.08066,21.101976],[-157.091834,21.102156],[-157.091981,21.102158],[-157.095583,21.103584],[-157.101104,21.100442],[-157.101877,21.10066],[-157.105392,21.101649],[-157.112714,21.100747],[-157.117308,21.098843],[-157.126818,21.097842],[-157.138428,21.093867],[-157.146283,21.093014],[-157.149064,21.091538],[-157.157375,21.092766],[-157.168783,21.09251],[-157.174484,21.092383],[-157.178496,21.091011],[-157.18399,21.090981],[-157.186768,21.091653],[-157.202562,21.089774],[-157.21608,21.089991],[-157.242414,21.088038],[-157.249701,21.084802],[-157.252534,21.08767],[-157.274071,21.091478],[-157.278353,21.091639],[-157.283576,21.093038],[-157.287383,21.093356],[-157.298841,21.09337],[-157.304092,21.09517],[-157.310748,21.101627],[-157.306472,21.108191],[-157.300894,21.114642],[-157.298753,21.120752],[-157.300567,21.124027],[-157.298461,21.128058],[-157.296737,21.133047]]],[[[-157.656498,21.325911],[-157.659587,21.327018],[-157.659825,21.328568],[-157.658881,21.330465],[-157.656571,21.331681],[-157.653883,21.328346],[-157.654084,21.325992],[-157.656498,21.325911]]],[[[-157.788034,21.431149],[-157.790434,21.43159],[-157.790528,21.433059],[-157.79087,21.434677],[-157.789739,21.435028],[-157.788823,21.436145],[-157.787213,21.435822],[-157.78674,21.433177],[-157.788034,21.431149]]],[[[-158.215789,21.580144],[-158.209103,21.582073],[-158.201734,21.582323],[-158.198646,21.582427],[-158.19517,21.582545],[-158.191402,21.582673],[-158.183948,21.581708],[-158.176865,21.58066],[-158.172263,21.581852],[-158.167509,21.579642],[-158.163706,21.581189],[-158.158274,21.58099],[-158.154337,21.580846],[-158.136379,21.58453],[-158.134033,21.583394],[-158.131943,21.582382],[-158.122823,21.583513],[-158.121154,21.585839],[-158.117998,21.590237],[-158.114836,21.592015],[-158.112843,21.589809],[-158.110228,21.593566],[-158.10672,21.596577],[-158.105225,21.596506],[-158.103811,21.596439],[-158.103811,21.600637],[-158.106689,21.603024],[-158.103317,21.605445],[-158.099796,21.608711],[-158.094896,21.613216],[-158.085831,21.618367],[-158.085985,21.621851],[-158.080043,21.624502],[-158.071627,21.633382],[-158.06816,21.638686],[-158.065069,21.639084],[-158.06377,21.64056],[-158.06293,21.641515],[-158.063881,21.643503],[-158.062258,21.655376],[-158.059076,21.658436],[-158.057391,21.660056],[-158.046966,21.67006],[-158.042251,21.673604],[-158.04006,21.675251],[-158.0371,21.681248],[-158.032309,21.682772],[-158.031319,21.686355],[-158.027753,21.689668],[-158.023563,21.692264],[-158.022049,21.693202],[-158.013671,21.698343],[-158.009252,21.70034],[-158.003748,21.70071],[-158.000183,21.701594],[-157.997173,21.705396],[-157.992339,21.70579],[-157.989375,21.705694],[-157.988888,21.705678],[-157.983491,21.710734],[-157.980728,21.7111],[-157.977833,21.709214],[-157.975464,21.710868],[-157.967383,21.710427],[-157.963352,21.706267],[-157.962011,21.703499],[-157.957876,21.702256],[-157.949198,21.693105],[-157.949081,21.692981],[-157.947174,21.689568],[-157.941238,21.681496],[-157.93791,21.676858],[-157.933107,21.674061],[-157.934825,21.672447],[-157.936009,21.671336],[-157.935296,21.666698],[-157.932206,21.663384],[-157.926264,21.661617],[-157.927215,21.657641],[-157.927792,21.655355],[-157.928184,21.653803],[-157.924591,21.651183],[-157.919847,21.648805],[-157.914142,21.649689],[-157.913238,21.64808],[-157.916779,21.647437],[-157.918183,21.642177],[-157.917945,21.635108],[-157.919078,21.632982],[-157.920754,21.629838],[-157.919614,21.626897],[-157.919371,21.62627],[-157.91283,21.621058],[-157.912716,21.620967],[-157.912674,21.61712],[-157.912652,21.615071],[-157.912647,21.614573],[-157.907711,21.607763],[-157.905721,21.606952],[-157.901571,21.605261],[-157.898094,21.602617],[-157.896423,21.598042],[-157.895126,21.594489],[-157.889273,21.589869],[-157.886735,21.580607],[-157.882694,21.577071],[-157.87735,21.575277],[-157.875191,21.573056],[-157.875061,21.56365],[-157.875052,21.562975],[-157.876932,21.557402],[-157.87347,21.554984],[-157.868914,21.555954],[-157.868866,21.555964],[-157.864136,21.559929],[-157.863849,21.56017],[-157.854859,21.557518],[-157.850733,21.554915],[-157.846683,21.54983],[-157.846641,21.544938],[-157.845872,21.544456],[-157.841885,21.541954],[-157.838469,21.535219],[-157.8368,21.531927],[-157.834505,21.526916],[-157.835682,21.516927],[-157.834829,21.508969],[-157.845215,21.507129],[-157.848543,21.505803],[-157.850624,21.506294],[-157.851019,21.505045],[-157.852625,21.499971],[-157.849256,21.494524],[-157.847029,21.492244],[-157.849256,21.487447],[-157.847117,21.485015],[-157.842865,21.484557],[-157.841664,21.480449],[-157.841906,21.478611],[-157.842312,21.475531],[-157.844186,21.47035],[-157.844316,21.469991],[-157.842839,21.465551],[-157.842601,21.463118],[-157.84099,21.459483],[-157.838085,21.456703],[-157.837731,21.456845],[-157.834216,21.458252],[-157.833738,21.462399],[-157.830082,21.457981],[-157.82489,21.455379],[-157.8223,21.452517],[-157.816587,21.454642],[-157.814535,21.450677],[-157.812903,21.447647],[-157.811227,21.444536],[-157.811189,21.444513],[-157.808537,21.442889],[-157.807198,21.439805],[-157.805175,21.435147],[-157.80526,21.434552],[-157.805603,21.432167],[-157.8059,21.4301],[-157.801595,21.427222],[-157.796741,21.425297],[-157.795389,21.428778],[-157.795075,21.428785],[-157.792653,21.428843],[-157.792286,21.428852],[-157.789103,21.425297],[-157.788069,21.422408],[-157.788351,21.418599],[-157.788387,21.418112],[-157.78835,21.417974],[-157.7872,21.413706],[-157.78417,21.412261],[-157.783789,21.412233],[-157.780383,21.411986],[-157.780081,21.411964],[-157.778044,21.411816],[-157.777634,21.41189],[-157.771361,21.413028],[-157.769957,21.413283],[-157.76929,21.41386],[-157.766537,21.416243],[-157.764122,21.421414],[-157.765533,21.424504],[-157.763681,21.428063],[-157.761353,21.42843],[-157.761303,21.428656],[-157.760391,21.432749],[-157.757496,21.434735],[-157.758031,21.43685],[-157.772744,21.443085],[-157.776802,21.443248],[-157.778277,21.446491],[-157.77731,21.451817],[-157.774032,21.453781],[-157.772748,21.456936],[-157.768236,21.456324],[-157.765542,21.461499],[-157.764377,21.462139],[-157.763781,21.46127],[-157.76319,21.459501],[-157.745892,21.453386],[-157.74258,21.453681],[-157.739849,21.453925],[-157.739101,21.455617],[-157.729976,21.460281],[-157.722506,21.459225],[-157.722827,21.455808],[-157.725758,21.449973],[-157.729503,21.446749],[-157.735669,21.445242],[-157.736044,21.441933],[-157.736412,21.438682],[-157.735831,21.432404],[-157.737376,21.428428],[-157.739001,21.424245],[-157.741507,21.425557],[-157.744483,21.422356],[-157.743289,21.413746],[-157.743278,21.413723],[-157.740298,21.40772],[-157.7386,21.4043],[-157.736972,21.402992],[-157.733934,21.40055],[-157.727184,21.398403],[-157.725756,21.397763],[-157.721228,21.395735],[-157.720672,21.395486],[-157.715864,21.393332],[-157.71316,21.390306],[-157.711978,21.388982],[-157.711855,21.388755],[-157.7089,21.3833],[-157.705887,21.380298],[-157.705895,21.380144],[-157.70611,21.375925],[-157.708719,21.369058],[-157.70903,21.360332],[-157.706621,21.353114],[-157.703426,21.348011],[-157.703271,21.347765],[-157.699419,21.341613],[-157.697365,21.338332],[-157.69455,21.334042],[-157.6938,21.3329],[-157.690816,21.33048],[-157.688368,21.328496],[-157.685386,21.327331],[-157.682651,21.326263],[-157.677831,21.32438],[-157.670194,21.31875],[-157.666131,21.315756],[-157.665879,21.31557],[-157.665273,21.31577],[-157.66339,21.31639],[-157.66141,21.314509],[-157.660079,21.313244],[-157.65935,21.31019],[-157.653253,21.3109],[-157.652261,21.311016],[-157.650108,21.310716],[-157.649825,21.310676],[-157.649279,21.3106],[-157.649055,21.310569],[-157.648929,21.304716],[-157.651032,21.298816],[-157.654658,21.297963],[-157.657985,21.293322],[-157.66851,21.287632],[-157.669145,21.286534],[-157.669808,21.285388],[-157.673764,21.285287],[-157.676938,21.280737],[-157.685775,21.275763],[-157.689325,21.268974],[-157.693338,21.272986],[-157.695952,21.271657],[-157.695952,21.267227],[-157.691516,21.26428],[-157.698719,21.260682],[-157.706186,21.25952],[-157.70643,21.259536],[-157.709276,21.259719],[-157.71152,21.261982],[-157.710938,21.264972],[-157.708729,21.269119],[-157.709011,21.271977],[-157.709474,21.277469],[-157.712357,21.28061],[-157.712583,21.280856],[-157.712658,21.280938],[-157.715482,21.282108],[-157.717049,21.282757],[-157.71909,21.284141],[-157.719411,21.284359],[-157.722367,21.281395],[-157.726908,21.280843],[-157.732169,21.282014],[-157.734592,21.279669],[-157.7382,21.27969],[-157.743605,21.279722],[-157.754532,21.276102],[-157.755848,21.272764],[-157.758697,21.273964],[-157.75951,21.275802],[-157.764404,21.275199],[-157.775454,21.270499],[-157.77679,21.268937],[-157.778538,21.266895],[-157.779944,21.265252],[-157.783775,21.263146],[-157.789798,21.259836],[-157.791215,21.25553],[-157.791659,21.255536],[-157.793736,21.255564],[-157.795879,21.257156],[-157.805837,21.255117],[-157.806201,21.255043],[-157.810842,21.255887],[-157.811241,21.255959],[-157.81277,21.256024],[-157.814901,21.256114],[-157.8211,21.2606],[-157.822761,21.264975],[-157.823164,21.271436],[-157.829722,21.276623],[-157.833795,21.277849],[-157.83793,21.281161],[-157.845396,21.281645],[-157.846003,21.281684],[-157.854957,21.286735],[-157.861192,21.290251],[-157.86182,21.290605],[-157.861831,21.290611],[-157.866552,21.293274],[-157.867006,21.29353],[-157.869842,21.29513],[-157.869963,21.295549],[-157.870023,21.295757],[-157.870727,21.298201],[-157.877621,21.30117],[-157.883771,21.300011],[-157.886688,21.306646],[-157.888376,21.306572],[-157.889872,21.306506],[-157.89,21.3065],[-157.893227,21.305983],[-157.899406,21.305319],[-157.901255,21.305319],[-157.904635,21.305319],[-157.905497,21.304497],[-157.906734,21.303319],[-157.94718,21.303769],[-157.949323,21.306477],[-157.948368,21.31019],[-157.94718,21.315505],[-157.94802,21.316083],[-157.948125,21.316156],[-157.948928,21.316709],[-157.951881,21.318742],[-157.960728,21.321704],[-157.965244,21.327461],[-157.969694,21.32825],[-157.970235,21.328346],[-157.970473,21.322811],[-157.978313,21.315929],[-157.981525,21.315898],[-157.990247,21.313968],[-158.005508,21.310592],[-158.009316,21.309749],[-158.021336,21.30709],[-158.02163,21.307037],[-158.027188,21.306046],[-158.027491,21.305992],[-158.027563,21.305979],[-158.032507,21.305097],[-158.044333,21.303763],[-158.044351,21.303755],[-158.050248,21.301118],[-158.067978,21.299546],[-158.079443,21.298127],[-158.084083,21.295797],[-158.085598,21.295787],[-158.086007,21.295785],[-158.098199,21.295705],[-158.102891,21.295675],[-158.108298,21.297614],[-158.1127,21.3019],[-158.118562,21.313297],[-158.120239,21.319973],[-158.120509,21.321048],[-158.118243,21.322321],[-158.115074,21.321499],[-158.112837,21.324101],[-158.113406,21.326609],[-158.116219,21.328811],[-158.116314,21.328731],[-158.118174,21.327172],[-158.120513,21.32521],[-158.122228,21.325544],[-158.123089,21.325712],[-158.12319,21.326856],[-158.123358,21.328758],[-158.123511,21.330494],[-158.123564,21.331095],[-158.123671,21.332308],[-158.123826,21.334059],[-158.12555,21.336638],[-158.126305,21.337767],[-158.126932,21.338705],[-158.128263,21.340696],[-158.129859,21.349124],[-158.130326,21.351593],[-158.129813,21.355133],[-158.132332,21.361774],[-158.1357,21.367855],[-158.136475,21.369254],[-158.13811,21.370266],[-158.140745,21.371896],[-158.141127,21.376383],[-158.146259,21.379714],[-158.1478,21.382161],[-158.148182,21.382767],[-158.148211,21.382814],[-158.149719,21.385208],[-158.152251,21.387397],[-158.157696,21.392102],[-158.162042,21.395858],[-158.172952,21.398603],[-158.178427,21.403595],[-158.1792,21.4043],[-158.17805,21.408861],[-158.177825,21.409751],[-158.179356,21.42282],[-158.179625,21.428488],[-158.17963,21.428584],[-158.179631,21.428607],[-158.179665,21.428623],[-158.182648,21.430073],[-158.188284,21.440509],[-158.190335,21.440267],[-158.191476,21.440132],[-158.18986,21.443426],[-158.189851,21.446527],[-158.192352,21.44804],[-158.197694,21.448739],[-158.19892,21.451511],[-158.199358,21.4525],[-158.200271,21.452818],[-158.20281,21.453703],[-158.203022,21.454715],[-158.203698,21.457944],[-158.205662,21.45897],[-158.208728,21.460571],[-158.214441,21.460285],[-158.213388,21.463276],[-158.218112,21.467604],[-158.220347,21.475957],[-158.220384,21.476097],[-158.221712,21.476684],[-158.225262,21.478255],[-158.231144,21.482685],[-158.230022,21.495318],[-158.229622,21.516888],[-158.229068,21.52504],[-158.229781,21.534326],[-158.231531,21.537183],[-158.234314,21.540058],[-158.250671,21.557373],[-158.256378,21.559335],[-158.271898,21.570152],[-158.274717,21.572117],[-158.281575,21.575163],[-158.277555,21.57699],[-158.259491,21.578537],[-158.234772,21.581852],[-158.22788,21.580084],[-158.215996,21.580084],[-158.215789,21.580144]]],[[[-160.541378,21.658616],[-160.540918,21.659126],[-160.540149,21.660187],[-160.538941,21.659729],[-160.537815,21.659056],[-160.538297,21.658421],[-160.538297,21.657973],[-160.538699,21.657618],[-160.539302,21.657282],[-160.539986,21.656759],[-160.540488,21.656273],[-160.540809,21.65519],[-160.540809,21.654144],[-160.54087,21.653621],[-160.540287,21.653042],[-160.540086,21.652687],[-160.539584,21.651791],[-160.539222,21.651156],[-160.538297,21.650782],[-160.537835,21.650371],[-160.537373,21.650297],[-160.53671,21.64996],[-160.536971,21.649643],[-160.537956,21.649419],[-160.539262,21.649213],[-160.540367,21.649195],[-160.542015,21.649699],[-160.543639,21.650517],[-160.544956,21.652333],[-160.544956,21.653394],[-160.544232,21.653904],[-160.54342,21.654434],[-160.543025,21.655189],[-160.542432,21.65676],[-160.541378,21.658616]]],[[[-160.229388,21.879618],[-160.228912,21.885132],[-160.225347,21.889984],[-160.217979,21.893733],[-160.210611,21.900129],[-160.20253,21.906965],[-160.196112,21.915565],[-160.191596,21.918211],[-160.188744,21.921298],[-160.187002,21.924882],[-160.175434,21.927913],[-160.17268,21.929249],[-160.166128,21.932426],[-160.164976,21.932984],[-160.162362,21.938496],[-160.154043,21.938716],[-160.136692,21.945771],[-160.125522,21.953707],[-160.121719,21.958998],[-160.11958,21.965831],[-160.114588,21.974868],[-160.113695,21.984754],[-160.110399,21.988502],[-160.111736,21.993602],[-160.104944,21.998235],[-160.100803,21.995806],[-160.093435,22.001095],[-160.092009,22.005502],[-160.087017,22.002858],[-160.086352,21.997928],[-160.076559,21.998891],[-160.072044,21.999993],[-160.070142,22.003298],[-160.058543,21.99638],[-160.053029,21.99228],[-160.050619,21.984673],[-160.051128,21.979276],[-160.054455,21.976631],[-160.059154,21.97713],[-160.063012,21.976191],[-160.065864,21.97068],[-160.068627,21.967256],[-160.070855,21.958557],[-160.076322,21.954589],[-160.078699,21.945991],[-160.082977,21.927913],[-160.079408,21.915141],[-160.07512,21.905283],[-160.073164,21.900454],[-160.073761,21.896777],[-160.074843,21.894793],[-160.07872,21.894329],[-160.082687,21.892187],[-160.085388,21.889526],[-160.090103,21.888348],[-160.096695,21.883715],[-160.098897,21.884711],[-160.107239,21.878618],[-160.111374,21.881041],[-160.120293,21.877192],[-160.124283,21.876789],[-160.128677,21.874453],[-160.139893,21.872303],[-160.143951,21.872912],[-160.150223,21.86939],[-160.159034,21.865281],[-160.164902,21.856878],[-160.167236,21.850569],[-160.172974,21.843914],[-160.17395,21.839066],[-160.178513,21.835075],[-160.187561,21.820896],[-160.188217,21.818405],[-160.191834,21.814318],[-160.191742,21.811571],[-160.194151,21.807544],[-160.192703,21.804438],[-160.200234,21.795176],[-160.20166,21.789434],[-160.202423,21.786972],[-160.198563,21.784733],[-160.201218,21.782702],[-160.203537,21.77916],[-160.20787,21.782556],[-160.214859,21.782556],[-160.21785,21.786528],[-160.221252,21.787712],[-160.223683,21.791367],[-160.230576,21.790485],[-160.233428,21.792471],[-160.232773,21.797489],[-160.236945,21.803666],[-160.243642,21.831907],[-160.245523,21.834648],[-160.245285,21.835952],[-160.243904,21.837145],[-160.243999,21.840151],[-160.246499,21.840726],[-160.245183,21.847205],[-160.240559,21.851384],[-160.232953,21.862855],[-160.23319,21.869031],[-160.232715,21.876089],[-160.229388,21.879618]]],[[[-160.101756,22.027021],[-160.100983,22.028494],[-160.100167,22.029012],[-160.099737,22.028613],[-160.099823,22.028056],[-160.099871,22.027971],[-160.100382,22.027061],[-160.100682,22.025549],[-160.100296,22.024315],[-160.09905,22.023041],[-160.096946,22.021488],[-160.095014,22.021289],[-160.093597,22.021528],[-160.092223,22.022882],[-160.091493,22.024434],[-160.091321,22.025389],[-160.091536,22.026424],[-160.091107,22.026743],[-160.089303,22.025907],[-160.088273,22.024832],[-160.0878,22.023877],[-160.087758,22.022643],[-160.087972,22.021409],[-160.089003,22.019976],[-160.090463,22.018304],[-160.091708,22.017229],[-160.092996,22.016154],[-160.094542,22.015557],[-160.096088,22.014841],[-160.098063,22.014841],[-160.099823,22.01492],[-160.101197,22.015716],[-160.101841,22.015716],[-160.102614,22.016552],[-160.102013,22.018463],[-160.101412,22.020891],[-160.101498,22.021886],[-160.101713,22.024116],[-160.102013,22.02531],[-160.101756,22.027021]]],[[[-159.783746,22.064897],[-159.778401,22.069464],[-159.771111,22.07412],[-159.76555,22.080485],[-159.750955,22.092804],[-159.745247,22.097508],[-159.743953,22.103348],[-159.741549,22.105344],[-159.740734,22.109789],[-159.738429,22.113501],[-159.738216,22.119462],[-159.733328,22.126538],[-159.732518,22.134242],[-159.730544,22.139953],[-159.727902,22.1422],[-159.722073,22.150323],[-159.717757,22.151661],[-159.713021,22.155568],[-159.705531,22.159321],[-159.703077,22.158053],[-159.698523,22.162832],[-159.690558,22.163499],[-159.689667,22.163574],[-159.676419,22.167454],[-159.671201,22.168414],[-159.665961,22.170756],[-159.658368,22.173134],[-159.652729,22.177778],[-159.64861,22.18044],[-159.643323,22.181024],[-159.633876,22.189039],[-159.630566,22.19271],[-159.623209,22.196982],[-159.617313,22.19869],[-159.606042,22.20406],[-159.605155,22.20602],[-159.596609,22.21074],[-159.587074,22.218515],[-159.581058,22.223488],[-159.577278,22.223539],[-159.57383,22.223586],[-159.572418,22.223506],[-159.569701,22.223352],[-159.566118,22.220588],[-159.559005,22.226652],[-159.558051,22.22629],[-159.553494,22.224561],[-159.549022,22.224892],[-159.545492,22.222678],[-159.543924,22.221695],[-159.542582,22.218123],[-159.541806,22.216057],[-159.541654,22.215651],[-159.53904,22.21389],[-159.532457,22.217885],[-159.530594,22.215754],[-159.522402,22.215211],[-159.517807,22.214216],[-159.518348,22.211182],[-159.515574,22.208008],[-159.510756,22.203548],[-159.510485,22.203572],[-159.503388,22.204208],[-159.502949,22.204557],[-159.498397,22.208169],[-159.497446,22.21411],[-159.497701,22.214482],[-159.497863,22.214716],[-159.498647,22.215858],[-159.500924,22.219173],[-159.49853,22.222261],[-159.497684,22.223352],[-159.492187,22.225076],[-159.491185,22.226123],[-159.487939,22.229512],[-159.485632,22.22937],[-159.484728,22.229314],[-159.480808,22.229072],[-159.47971,22.229123],[-159.475938,22.2293],[-159.47249,22.227752],[-159.470934,22.225693],[-159.467498,22.225992],[-159.46509,22.223241],[-159.464258,22.223458],[-159.46083,22.224351],[-159.454296,22.226351],[-159.449125,22.225152],[-159.444435,22.223701],[-159.43874,22.223537],[-159.434936,22.223428],[-159.431707,22.220015],[-159.428994,22.217631],[-159.428959,22.217637],[-159.42638,22.218071],[-159.425904,22.221371],[-159.425035,22.222981],[-159.424666,22.223665],[-159.424241,22.224452],[-159.419725,22.223132],[-159.417599,22.223348],[-159.414988,22.223613],[-159.413867,22.223727],[-159.406741,22.22568],[-159.405539,22.229878],[-159.40297,22.232156],[-159.402466,22.232603],[-159.402263,22.232471],[-159.40104,22.231674],[-159.398663,22.230124],[-159.39799,22.229686],[-159.395602,22.225451],[-159.39087,22.225298],[-159.389728,22.222787],[-159.38292,22.224771],[-159.38336,22.220711],[-159.382171,22.216971],[-159.375516,22.217851],[-159.369558,22.21559],[-159.368278,22.215104],[-159.357215,22.21345],[-159.354285,22.214387],[-159.349768,22.215005],[-159.339964,22.208519],[-159.335671,22.204167],[-159.331575,22.200016],[-159.331308,22.197827],[-159.333447,22.195406],[-159.331783,22.192985],[-159.328456,22.194966],[-159.322528,22.191205],[-159.315613,22.186817],[-159.312293,22.183082],[-159.311249,22.178254],[-159.312604,22.1729],[-159.308491,22.167234],[-159.306523,22.164728],[-159.302786,22.15997],[-159.305006,22.157434],[-159.30509,22.156986],[-159.305513,22.154738],[-159.305683,22.153835],[-159.305768,22.153384],[-159.306066,22.151799],[-159.306351,22.150285],[-159.306049,22.150024],[-159.302786,22.147203],[-159.301565,22.147344],[-159.298983,22.147643],[-159.297744,22.148582],[-159.297663,22.148643],[-159.296369,22.149624],[-159.293279,22.144341],[-159.29321,22.143323],[-159.293162,22.14261],[-159.292869,22.138262],[-159.292328,22.130251],[-159.292531,22.12809],[-159.292725,22.126028],[-159.293013,22.12296],[-159.293394,22.122148],[-159.296723,22.115059],[-159.294633,22.110872],[-159.296633,22.105107],[-159.301093,22.099931],[-159.303892,22.099139],[-159.304786,22.092167],[-159.304791,22.092126],[-159.304872,22.091496],[-159.305006,22.090449],[-159.310867,22.084228],[-159.313779,22.078594],[-159.315073,22.077157],[-159.316634,22.075422],[-159.316308,22.070433],[-159.31828,22.061417],[-159.319509,22.059344],[-159.321596,22.055823],[-159.328529,22.051663],[-159.33271,22.050713],[-159.335457,22.04601],[-159.335181,22.04478],[-159.335104,22.044437],[-159.334489,22.041698],[-159.336841,22.031851],[-159.338591,22.023442],[-159.337792,22.01593],[-159.335586,22.009546],[-159.333726,22.003271],[-159.332564,21.999352],[-159.334873,21.996765],[-159.335067,21.993168],[-159.335111,21.992357],[-159.330595,21.99412],[-159.329406,21.991696],[-159.33194,21.98912],[-159.33383,21.984781],[-159.333494,21.97825],[-159.331508,21.973475],[-159.330095,21.966562],[-159.329882,21.960177],[-159.33578,21.955115],[-159.340201,21.958421],[-159.344979,21.9569],[-159.347759,21.9569],[-159.34833,21.960405],[-159.351895,21.960141],[-159.352323,21.95485],[-159.358598,21.95366],[-159.357538,21.948133],[-159.357457,21.947708],[-159.350398,21.948964],[-159.347617,21.947575],[-159.350184,21.941425],[-159.346547,21.938316],[-159.346757,21.936368],[-159.354125,21.936589],[-159.355088,21.931613],[-159.362029,21.931486],[-159.366515,21.929145],[-159.36789,21.925841],[-159.379884,21.921174],[-159.385271,21.912439],[-159.388593,21.912449],[-159.390304,21.907343],[-159.38724,21.903307],[-159.38774,21.903017],[-159.389539,21.901971],[-159.396883,21.902963],[-159.40378,21.8985],[-159.404617,21.893367],[-159.410263,21.889807],[-159.416669,21.888302],[-159.41697,21.887593],[-159.417968,21.885241],[-159.418825,21.882339],[-159.427169,21.881207],[-159.429518,21.879908],[-159.433957,21.874198],[-159.436897,21.874863],[-159.437788,21.875064],[-159.440489,21.873263],[-159.441086,21.871176],[-159.444868,21.868627],[-159.452793,21.872808],[-159.461794,21.876387],[-159.469073,21.879165],[-159.475342,21.882122],[-159.482666,21.882179],[-159.487257,21.885055],[-159.488266,21.885687],[-159.501401,21.884634],[-159.502752,21.885297],[-159.505508,21.886649],[-159.508819,21.886576],[-159.512206,21.888085],[-159.519682,21.886877],[-159.526918,21.883886],[-159.531785,21.886868],[-159.536482,21.886619],[-159.544431,21.888106],[-159.551802,21.887293],[-159.560989,21.889747],[-159.569812,21.894056],[-159.574521,21.892806],[-159.580278,21.896337],[-159.580937,21.896363],[-159.583542,21.896464],[-159.583486,21.898222],[-159.587708,21.898767],[-159.589903,21.902853],[-159.590267,21.90296],[-159.594419,21.904176],[-159.597509,21.902412],[-159.5975,21.902348],[-159.596796,21.89734],[-159.597408,21.894706],[-159.603279,21.892248],[-159.6048,21.893344],[-159.607265,21.895121],[-159.607704,21.897472],[-159.608138,21.899797],[-159.616819,21.902049],[-159.622114,21.906445],[-159.628476,21.908921],[-159.629338,21.909618],[-159.633738,21.913171],[-159.636232,21.916244],[-159.638409,21.919304],[-159.638205,21.921198],[-159.638122,21.921972],[-159.643099,21.925875],[-159.645626,21.929412],[-159.647756,21.932392],[-159.649766,21.933848],[-159.64995,21.939195],[-159.652927,21.941618],[-159.660793,21.942747],[-159.665667,21.949034],[-159.666748,21.950647],[-159.668715,21.953585],[-159.674364,21.955577],[-159.689677,21.958385],[-159.692618,21.958832],[-159.70201,21.960259],[-159.707795,21.961229],[-159.712601,21.964864],[-159.715623,21.96715],[-159.717496,21.967656],[-159.732859,21.971806],[-159.736583,21.972812],[-159.750181,21.976032],[-159.759405,21.97951],[-159.765735,21.986593],[-159.774173,22.005865],[-159.780783,22.010373],[-159.786702,22.018801],[-159.787943,22.030102],[-159.786487,22.035902],[-159.783863,22.047809],[-159.784623,22.052315],[-159.782975,22.058641],[-159.783746,22.064897]]],[[[-161.925773,23.054248],[-161.928129,23.057074],[-161.929492,23.062555],[-161.922465,23.060729],[-161.91643,23.060859],[-161.915586,23.058349],[-161.918856,23.05611],[-161.925773,23.054248]]]]}}]}